STARLINK-31174          
1 58808U 24012X   26068.31712500 -.00000351  00000+0 -32374-5 0  9993
2 58808  42.9960 166.9497 0000575 271.4466  88.6319 15.27564523121188
FLOCK 4G-36             
1 62675U 25009BU  26068.70726311  .00013573  00000+0  51122-3 0  9993
2 62675  97.4053 151.0513 0003474 324.2456  35.8550 15.27209548 63701
